1 08820U 76039A   03276.78711001 -.00000005  00000-0  10000-3 0  9705
2 08820 109.8192 218.7656 0044390 278.1249  81.4273  6.38664472383991
